NORAD_CAT_ID,OBJECT_NAME,OBJECT_TYPE,EPOCH,MEAN_MOTION,ECCENTRICITY,INCLINATION,RA_OF_ASC_NODE,ARG_OF_PERICENTER,MEAN_ANOMALY,BSTAR,MEAN_MOTION_DOT,MEAN_MOTION_DDOT,TLE_LINE0,TLE_LINE1,TLE_LINE2,SEMIMAJOR_AXIS,PERIOD,APOGEE,PERIGEE,DECAYED
54180.0,STARLINK-5228,PAYLOAD,2024-08-08 21:15:04,15.08879842,0.0001533,53.2172,77.6465,85.2464,274.8703,0.00098296,0.00015407,0.0,0 STARLINK-5228,1 54180U 22141Z   24221.88546987  .00015407  00000-0  98296-3 0  9998,2 54180  53.2172  77.6465 0001533  85.2464 274.8703 15.08879842 98635,6917.759,95.435,540.684,538.563,0.0
54180.0,STARLINK-5228,PAYLOAD,2024-08-09 00:25:50,15.08883735,0.0001523,53.2166,77.048,89.3474,270.7693,0.0010088,0.00015823,0.0,0 STARLINK-5228,1 54180U 22141Z   24222.01794570  .00015823  00000-0  10088-2 0  9991,2 54180  53.2166  77.0480 0001523  89.3474 270.7693 15.08883735 98880,6917.747,95.435,540.665,538.558,0.0
54180.0,STARLINK-5228,PAYLOAD,2024-08-09 14:44:19,15.08837553,0.0002142,53.2175,74.3646,115.9555,244.1658,-0.00010032,-1.884e-05,0.0,0 STARLINK-5228,1 54180U 22141Z   24222.61411484 -.00001884  00000-0 -10032-3 0  9991,2 54180  53.2175  74.3646 0002142 115.9555 244.1658 15.08837553 98746,6917.888,95.438,541.235,538.271,0.0
54180.0,STARLINK-5228,PAYLOAD,2024-08-09 19:30:28,15.08841634,0.0001467,53.2166,73.4772,100.5553,259.5604,3.5669e-05,2.8e-06,0.0,0 STARLINK-5228,1 54180U 22141Z   24222.81283381  .00000280  00000-0  35669-4 0  9997,2 54180  53.2166  73.4772 0001467 100.5553 259.5604 15.08841634 99009,6917.875,95.437,540.755,538.726,0.0
54180.0,STARLINK-5228,PAYLOAD,2024-08-09 21:05:52,15.08844381,0.0001603,53.2171,73.1768,102.5544,257.5628,0.00013706,1.894e-05,0.0,0 STARLINK-5228,1 54180U 22141Z   24222.87907413  .00001894  00000-0  13706-3 0  9991,2 54180  53.2171  73.1768 0001603 102.5544 257.5628 15.08844381 98781,6917.867,95.437,540.841,538.623,0.0
54180.0,STARLINK-5228,PAYLOAD,2024-08-10 14:35:07,15.08834418,0.0001546,53.2177,69.9116,103.543,256.5734,-0.00017677,-3.1e-05,0.0,0 STARLINK-5228,1 54180U 22141Z   24223.60771992 -.00003100  00000-0 -17677-3 0  9999,2 54180  53.2177  69.9116 0001546 103.5430 256.5734 15.08834418 98897,6917.897,95.438,540.832,538.693,0.0
54180.0,STARLINK-5228,PAYLOAD,2024-08-10 19:21:16,15.08839818,0.0001514,53.2177,69.0194,95.1066,265.0099,-0.0001124,-2.076e-05,0.0,0 STARLINK-5228,1 54180U 22141Z   24223.80643922 -.00002076  00000-0 -11240-3 0  9993,2 54180  53.2177  69.0194 0001514  95.1066 265.0099 15.08839818 99158,6917.881,95.438,540.793,538.699,0.0
54180.0,STARLINK-5228,PAYLOAD,2024-08-11 00:07:25,15.08844969,0.0001694,53.2179,68.1254,114.4783,245.6386,0.0001038,1.365e-05,0.0,0 STARLINK-5228,1 54180U 22141Z   24224.00515475  .00001365  00000-0  10380-3 0  9999,2 54180  53.2179  68.1254 0001694 114.4783 245.6386 15.08844969 99186,6917.865,95.437,540.902,538.558,0.0
54180.0,STARLINK-5228,PAYLOAD,2024-08-11 23:58:13,15.08838928,0.0001118,53.2162,63.6647,74.7433,285.3682,0.00016257,2.3e-05,0.0,0 STARLINK-5228,1 54180U 22141Z   24224.99876302  .00002300  00000-0  16257-3 0  9995,2 54180  53.2162  63.6647 0001118  74.7433 285.3682 15.08838928 99330,6917.884,95.438,540.522,538.975,0.0
54180.0,STARLINK-5228,PAYLOAD,2024-08-12 06:19:45,15.0883549,5.25e-05,53.2166,62.4754,103.4712,256.6339,4.3904e-05,4.11e-06,0.0,0 STARLINK-5228,1 54180U 22141Z   24225.26372117  .00000411  00000-0  43904-4 0  9992,2 54180  53.2166  62.4754 0000525 103.4712 256.6339 15.08835490 99141,6917.894,95.438,540.122,539.396,0.0
54180.0,STARLINK-5228,PAYLOAD,2024-08-12 22:13:35,15.08863931,0.0001588,53.2171,59.5028,83.8657,276.2516,0.00042389,6.469e-05,0.0,0 STARLINK-5228,1 54180U 22141Z   24225.92611107  .00006469  00000-0  42389-3 0  9994,2 54180  53.2171  59.5028 0001588  83.8657 276.2516 15.08863931 99244,6917.807,95.436,540.771,538.574,0.0
54180.0,STARLINK-5228,PAYLOAD,2024-08-12 23:48:59,15.08865079,0.0001852,53.2165,59.2046,84.1099,276.0104,0.00051036,7.849e-05,0.0,0 STARLINK-5228,1 54180U 22141Z   24225.99235288  .00007849  00000-0  51036-3 0  9995,2 54180  53.2165  59.2046 0001852  84.1099 276.0104 15.08865079 99484,6917.804,95.436,540.95,538.388,0.0
54180.0,STARLINK-5228,PAYLOAD,2024-08-13 12:32:06,15.08810789,0.0001995,53.2106,56.8289,80.0841,280.0377,-0.00038431,-6.395e-05,0.0,0 STARLINK-5228,1 54180U 22141Z   24226.52229745 -.00006395  00000-0 -38431-3 0  9997,2 54180  53.2106  56.8289 0001995  80.0841 280.0377 15.08810789 99563,6917.97,95.439,541.215,538.455,0.0
54180.0,STARLINK-5228,PAYLOAD,2024-08-13 18:53:40,15.08798574,0.0002418,53.215,55.6398,81.5864,278.5402,-0.00057743,-9.456e-05,0.0,0 STARLINK-5228,1 54180U 22141Z   24226.78727016 -.00009456  00000-0 -57743-3 0  9997,2 54180  53.2150  55.6398 0002418  81.5864 278.5402 15.08798574 99605,6918.007,95.44,541.545,538.199,0.0
54180.0,STARLINK-5228,PAYLOAD,2024-08-14 06:01:23,15.08793496,0.0003321,53.2096,53.557,89.2927,270.8446,-0.00040321,-6.693e-05,0.0,0 STARLINK-5228,1 54180U 22141Z   24227.25096680 -.00006693  00000-0 -40321-3 0  9990,2 54180  53.2096  53.5570 0003321  89.2927 270.8446 15.08793496 99445,6918.023,95.44,542.185,537.59,0.0
54180.0,STARLINK-5228,PAYLOAD,2024-08-14 18:44:26,15.08844985,0.0001871,53.2149,51.1763,86.688,273.4326,0.00053565,8.248e-05,0.0,0 STARLINK-5228,1 54180U 22141Z   24227.78086743  .00008248  00000-0  53565-3 0  9997,2 54180  53.2149  51.1763 0001871  86.6880 273.4326 15.08844985 99759,6917.865,95.437,541.024,538.436,0.0
54180.0,STARLINK-5228,PAYLOAD,2024-08-15 05:52:09,15.08839592,0.0001035,53.2177,49.0988,56.5125,303.5966,0.00038326,5.817e-05,0.0,0 STARLINK-5228,1 54180U 22141Z   24228.24455127  .00005817  00000-0  38326-3 0  9992,2 54180  53.2177  49.0988 0001035  56.5125 303.5966 15.08839592 99590,6917.882,95.438,540.463,539.031,0.0
54180.0,STARLINK-5228,PAYLOAD,2024-08-15 20:10:37,15.08845796,0.0002212,53.2145,46.4204,81.7872,278.3371,0.00062904,9.739e-05,0.0,0 STARLINK-5228,1 54180U 22141Z   24228.84071274  .00009739  00000-0  62904-3 0  9991,2 54180  53.2145  46.4204 0002212  81.7872 278.3371 15.08845796 99912,6917.863,95.437,541.258,538.197,0.0
54180.0,STARLINK-5228,PAYLOAD,2024-08-17 11:55:14,15.08853499,0.0001682,53.2162,38.9837,79.9797,280.1385,9.7175e-05,1.259e-05,0.0,0 STARLINK-5228,1 54180U 22141Z   24230.49669389  .00001259  00000-0  97175-4 0  9993,2 54180  53.2162  38.9837 0001682  79.9797 280.1385 15.08853499100169,6917.839,95.437,540.868,538.541,0.0
54180.0,STARLINK-5228,PAYLOAD,2024-08-18 11:46:00,15.08853087,0.0004063,53.2123,34.5194,113.3602,246.7818,1.7492e-05,-1.1e-07,0.0,0 STARLINK-5228,1 54180U 22141Z   24231.49028273 -.00000011  00000-0  17492-4 0  9995,2 54180  53.2123  34.5194 0004063 113.3602 246.7818 15.08853087100317,6917.84,95.437,542.516,536.895,0.0
54180.0,STARLINK-5228,PAYLOAD,2024-08-18 16:32:10,15.08845887,0.0001528,53.2183,33.6344,104.5412,255.575,0.00018108,2.596e-05,0.0,0 STARLINK-5228,1 54180U 22141Z   24231.68900743  .00002596  00000-0  18108-3 0  9990,2 54180  53.2183  33.6344 0001528 104.5412 255.5750 15.08845887100349,6917.862,95.437,540.784,538.67,0.0
54180.0,STARLINK-5228,PAYLOAD,2024-08-18 21:18:19,15.08851618,0.0001442,53.2181,32.7406,98.7906,261.3249,0.00027804,4.141e-05,0.0,0 STARLINK-5228,1 54180U 22141Z   24231.88772372  .00004141  00000-0  27804-3 0  9998,2 54180  53.2181  32.7406 0001442  98.7906 261.3249 15.08851618100148,6917.845,95.437,540.707,538.712,0.0
54180.0,STARLINK-5228,PAYLOAD,2024-08-19 03:39:51,15.08848558,0.0001326,53.2166,31.5465,83.0876,277.0267,0.0001995,2.889e-05,0.0,0 STARLINK-5228,1 54180U 22141Z   24232.15268411  .00002889  00000-0  19950-3 0  9993,2 54180  53.2166  31.5465 0001326  83.0876 277.0267 15.08848558100184,6917.854,95.437,540.637,538.802,0.0
54180.0,STARLINK-5228,PAYLOAD,2024-08-19 19:33:44,15.0883243,0.0001758,53.2207,28.5811,91.1987,268.9206,-6.3604e-05,-1.3e-05,0.0,0 STARLINK-5228,1 54180U 22141Z   24232.81509576 -.00001300  00000-0 -63604-4 0  9991,2 54180  53.2207  28.5811 0001758  91.1987 268.9206 15.08832430100514,6917.904,95.438,540.985,538.552,0.0
54180.0,STARLINK-5228,PAYLOAD,2024-08-20 14:38:21,15.08836783,9.58e-05,53.2194,25.0161,80.9647,279.1454,0.00022329,3.267e-05,0.0,0 STARLINK-5228,1 54180U 22141Z   24233.60997324  .00003267  00000-0  22329-3 0  9991,2 54180  53.2194  25.0161 0000958  80.9647 279.1454 15.08836783100401,6917.89,95.438,540.418,539.092,0.0
54180.0,STARLINK-5228,PAYLOAD,2024-08-20 19:24:30,15.08851397,0.0001538,53.2188,24.1215,83.6647,276.452,0.00034162,5.155e-05,0.0,0 STARLINK-5228,1 54180U 22141Z   24233.80868808  .00005155  00000-0  34162-3 0  9993,2 54180  53.2188  24.1215 0001538  83.6647 276.4520 15.08851397100669,6917.846,95.437,540.775,538.647,0.0
54180.0,STARLINK-5228,PAYLOAD,2024-08-21 09:42:59,15.0883729,0.0001833,53.2175,21.4474,69.9435,290.1754,0.00016738,2.377e-05,0.0,0 STARLINK-5228,1 54180U 22141Z   24234.40485724  .00002377  00000-0  16738-3 0  9994,2 54180  53.2175  21.4474 0001833  69.9435 290.1754 15.08837290100750,6917.889,95.438,541.022,538.486,0.0
54180.0,STARLINK-5228,PAYLOAD,2024-08-21 14:29:09,15.08837314,0.0001553,53.218,20.551,82.5822,277.5347,0.00017238,2.456e-05,0.0,0 STARLINK-5228,1 54180U 22141Z   24234.60357766  .00002456  00000-0  17238-3 0  9994,2 54180  53.2180  20.5510 0001553  82.5822 277.5347 15.08837314100559,6917.889,95.438,540.828,538.679,0.0
54180.0,STARLINK-5228,PAYLOAD,2024-08-21 16:04:31,15.0884355,0.0001533,53.2183,20.2503,104.5843,255.5319,0.00026784,3.978e-05,0.0,0 STARLINK-5228,1 54180U 22141Z   24234.66981422  .00003978  00000-0  26784-3 0  9998,2 54180  53.2183  20.2503 0001533 104.5843 255.5319 15.08843550100562,6917.87,95.437,540.795,538.674,0.0
